CCSDS_OMM_VERS = 2.0
CREATION_DATE  = 
ORIGINATOR     = 

OBJECT_NAME    = STARLINK-35930
OBJECT_ID      = 2025-270M
CENTER_NAME    = EARTH
REF_FRAME      = TEME
TIME_SYSTEM    = UTC
MEAN_ELEMENT_THEORY = SGP/SGP4

EPOCH          = 2025-12-10T12:00:02.998944
MEAN_MOTION    = 15.51026865
ECCENTRICITY   = .0002022
INCLINATION    = 42.9996
RA_OF_ASC_NODE = 205.7834
ARG_OF_PERICENTER = 260.7985
MEAN_ANOMALY   = 230.1861

EPHEMERIS_TYPE = 0
CLASSIFICATION_TYPE = U
NORAD_CAT_ID   = 66599
ELEMENT_SET_NO = 999
REV_AT_EPOCH   = 404
BSTAR          = -.12458E-1
MEAN_MOTION_DOT = -.681694E-2
MEAN_MOTION_DDOT = 0

CCSDS_OMM_VERS = 2.0
CREATION_DATE  = 
ORIGINATOR     = 

OBJECT_NAME    = STARLINK-35980
OBJECT_ID      = 2025-270N
CENTER_NAME    = EARTH
REF_FRAME      = TEME
TIME_SYSTEM    = UTC
MEAN_ELEMENT_THEORY = SGP/SGP4

EPOCH          = 2025-12-10T12:00:02.998944
MEAN_MOTION    = 15.51123953
ECCENTRICITY   = .0002292
INCLINATION    = 42.9998
RA_OF_ASC_NODE = 205.7781
ARG_OF_PERICENTER = 257.6457
MEAN_ANOMALY   = 235.2265

EPHEMERIS_TYPE = 0
CLASSIFICATION_TYPE = U
NORAD_CAT_ID   = 66600
ELEMENT_SET_NO = 999
REV_AT_EPOCH   = 394
BSTAR          = -.15452E-1
MEAN_MOTION_DOT = -.84461E-2
MEAN_MOTION_DDOT = 0

CCSDS_OMM_VERS = 2.0
CREATION_DATE  = 
ORIGINATOR     = 

OBJECT_NAME    = STARLINK-35978
OBJECT_ID      = 2025-270P
CENTER_NAME    = EARTH
REF_FRAME      = TEME
TIME_SYSTEM    = UTC
MEAN_ELEMENT_THEORY = SGP/SGP4

EPOCH          = 2025-12-10T12:00:02.998944
MEAN_MOTION    = 15.51054321
ECCENTRICITY   = .0002099
INCLINATION    = 42.9998
RA_OF_ASC_NODE = 205.7737
ARG_OF_PERICENTER = 254.6801
MEAN_ANOMALY   = 240.1162

EPHEMERIS_TYPE = 0
CLASSIFICATION_TYPE = U
NORAD_CAT_ID   = 66601
ELEMENT_SET_NO = 999
REV_AT_EPOCH   = 388
BSTAR          = -.13021E-1
MEAN_MOTION_DOT = -.719651E-2
MEAN_MOTION_DDOT = 0

CCSDS_OMM_VERS = 2.0
CREATION_DATE  = 
ORIGINATOR     = 

OBJECT_NAME    = STARLINK-36050
OBJECT_ID      = 2025-270Q
CENTER_NAME    = EARTH
REF_FRAME      = TEME
TIME_SYSTEM    = UTC
MEAN_ELEMENT_THEORY = SGP/SGP4

EPOCH          = 2025-12-10T12:00:02.998944
MEAN_MOTION    = 15.51044640
ECCENTRICITY   = .0001969
INCLINATION    = 42.9998
RA_OF_ASC_NODE = 205.7684
ARG_OF_PERICENTER = 258.6235
MEAN_ANOMALY   = 238.0996

EPHEMERIS_TYPE = 0
CLASSIFICATION_TYPE = U
NORAD_CAT_ID   = 66602
ELEMENT_SET_NO = 999
REV_AT_EPOCH   = 394
BSTAR          = -.1286E-1
MEAN_MOTION_DOT = -.702274E-2
MEAN_MOTION_DDOT = 0

CCSDS_OMM_VERS = 2.0
CREATION_DATE  = 
ORIGINATOR     = 

OBJECT_NAME    = STARLINK-36048
OBJECT_ID      = 2025-270R
CENTER_NAME    = EARTH
REF_FRAME      = TEME
TIME_SYSTEM    = UTC
MEAN_ELEMENT_THEORY = SGP/SGP4

EPOCH          = 2025-12-10T12:00:02.998944
MEAN_MOTION    = 15.51055336
ECCENTRICITY   = .0001849
INCLINATION    = 42.9997
RA_OF_ASC_NODE = 205.7631
ARG_OF_PERICENTER = 244.1324
MEAN_ANOMALY   = 254.4982

EPHEMERIS_TYPE = 0
CLASSIFICATION_TYPE = U
NORAD_CAT_ID   = 66603
ELEMENT_SET_NO = 999
REV_AT_EPOCH   = 394
BSTAR          = -.13763E-1
MEAN_MOTION_DOT = -.757506E-2
MEAN_MOTION_DDOT = 0

CCSDS_OMM_VERS = 2.0
CREATION_DATE  = 
ORIGINATOR     = 

OBJECT_NAME    = STARLINK-35977
OBJECT_ID      = 2025-270S
CENTER_NAME    = EARTH
REF_FRAME      = TEME
TIME_SYSTEM    = UTC
MEAN_ELEMENT_THEORY = SGP/SGP4

EPOCH          = 2025-12-10T12:00:02.998944
MEAN_MOTION    = 15.51049980
ECCENTRICITY   = .0001756
INCLINATION    = 42.9996
RA_OF_ASC_NODE = 205.7582
ARG_OF_PERICENTER = 246.5594
MEAN_ANOMALY   = 253.9909

EPHEMERIS_TYPE = 0
CLASSIFICATION_TYPE = U
NORAD_CAT_ID   = 66604
ELEMENT_SET_NO = 999
REV_AT_EPOCH   = 404
BSTAR          = -.13606E-1
MEAN_MOTION_DOT = -.749354E-2
MEAN_MOTION_DDOT = 0

CCSDS_OMM_VERS = 2.0
CREATION_DATE  = 
ORIGINATOR     = 

OBJECT_NAME    = STARLINK-36052
OBJECT_ID      = 2025-270T
CENTER_NAME    = EARTH
REF_FRAME      = TEME
TIME_SYSTEM    = UTC
MEAN_ELEMENT_THEORY = SGP/SGP4

EPOCH          = 2025-12-10T12:00:02.998944
MEAN_MOTION    = 15.51062882
ECCENTRICITY   = .000205
INCLINATION    = 42.9997
RA_OF_ASC_NODE = 205.7541
ARG_OF_PERICENTER = 255.3644
MEAN_ANOMALY   = 247.0997

EPHEMERIS_TYPE = 0
CLASSIFICATION_TYPE = U
NORAD_CAT_ID   = 66605
ELEMENT_SET_NO = 999
REV_AT_EPOCH   = 404
BSTAR          = -.13304E-1
MEAN_MOTION_DOT = -.734336E-2
MEAN_MOTION_DDOT = 0

CCSDS_OMM_VERS = 2.0
CREATION_DATE  = 
ORIGINATOR     = 

OBJECT_NAME    = STARLINK-36063
OBJECT_ID      = 2025-270U
CENTER_NAME    = EARTH
REF_FRAME      = TEME
TIME_SYSTEM    = UTC
MEAN_ELEMENT_THEORY = SGP/SGP4

EPOCH          = 2025-12-10T12:00:02.998944
MEAN_MOTION    = 15.51052372
ECCENTRICITY   = .0001764
INCLINATION    = 42.9999
RA_OF_ASC_NODE = 205.7437
ARG_OF_PERICENTER = 247.6746
MEAN_ANOMALY   = 258.6275

EPHEMERIS_TYPE = 0
CLASSIFICATION_TYPE = U
NORAD_CAT_ID   = 66606
ELEMENT_SET_NO = 999
REV_AT_EPOCH   = 404
BSTAR          = -.13634E-1
MEAN_MOTION_DOT = -.750835E-2
MEAN_MOTION_DDOT = 0

CCSDS_OMM_VERS = 2.0
CREATION_DATE  = 
ORIGINATOR     = 

OBJECT_NAME    = STARLINK-35993
OBJECT_ID      = 2025-270V
CENTER_NAME    = EARTH
REF_FRAME      = TEME
TIME_SYSTEM    = UTC
MEAN_ELEMENT_THEORY = SGP/SGP4

EPOCH          = 2025-12-10T12:00:02.998944
MEAN_MOTION    = 15.51063045
ECCENTRICITY   = .0001998
INCLINATION    = 42.9996
RA_OF_ASC_NODE = 205.7494
ARG_OF_PERICENTER = 256.1177
MEAN_ANOMALY   = 248.2623

EPHEMERIS_TYPE = 0
CLASSIFICATION_TYPE = U
NORAD_CAT_ID   = 66607
ELEMENT_SET_NO = 999
REV_AT_EPOCH   = 394
BSTAR          = -.13291E-1
MEAN_MOTION_DOT = -.733664E-2
MEAN_MOTION_DDOT = 0

CCSDS_OMM_VERS = 2.0
CREATION_DATE  = 
ORIGINATOR     = 

OBJECT_NAME    = STARLINK-36036
OBJECT_ID      = 2025-270W
CENTER_NAME    = EARTH
REF_FRAME      = TEME
TIME_SYSTEM    = UTC
MEAN_ELEMENT_THEORY = SGP/SGP4

EPOCH          = 2025-12-10T12:00:02.998944
MEAN_MOTION    = 15.51057279
ECCENTRICITY   = .0001777
INCLINATION    = 42.9997
RA_OF_ASC_NODE = 205.7388
ARG_OF_PERICENTER = 246.8612
MEAN_ANOMALY   = 261.3573

EPHEMERIS_TYPE = 0
CLASSIFICATION_TYPE = U
NORAD_CAT_ID   = 66608
ELEMENT_SET_NO = 999
REV_AT_EPOCH   = 388
BSTAR          = -.13872E-1
MEAN_MOTION_DOT = -.763084E-2
MEAN_MOTION_DDOT = 0

CCSDS_OMM_VERS = 2.0
CREATION_DATE  = 
ORIGINATOR     = 

OBJECT_NAME    = STARLINK-36034
OBJECT_ID      = 2025-270X
CENTER_NAME    = EARTH
REF_FRAME      = TEME
TIME_SYSTEM    = UTC
MEAN_ELEMENT_THEORY = SGP/SGP4

EPOCH          = 2025-12-10T12:00:02.998944
MEAN_MOTION    = 15.51050183
ECCENTRICITY   = .0002062
INCLINATION    = 42.9998
RA_OF_ASC_NODE = 205.7351
ARG_OF_PERICENTER = 254.6408
MEAN_ANOMALY   = 255.4928

EPHEMERIS_TYPE = 0
CLASSIFICATION_TYPE = U
NORAD_CAT_ID   = 66609
ELEMENT_SET_NO = 999
REV_AT_EPOCH   = 388
BSTAR          = -.12936E-1
MEAN_MOTION_DOT = -.715186E-2
MEAN_MOTION_DDOT = 0

CCSDS_OMM_VERS = 2.0
CREATION_DATE  = 
ORIGINATOR     = 

OBJECT_NAME    = STARLINK-35680
OBJECT_ID      = 2025-270Y
CENTER_NAME    = EARTH
REF_FRAME      = TEME
TIME_SYSTEM    = UTC
MEAN_ELEMENT_THEORY = SGP/SGP4

EPOCH          = 2025-12-10T12:00:02.998944
MEAN_MOTION    = 15.51051470
ECCENTRICITY   = .0002047
INCLINATION    = 43.0000
RA_OF_ASC_NODE = 205.7298
ARG_OF_PERICENTER = 258.0419
MEAN_ANOMALY   = 254.0059

EPHEMERIS_TYPE = 0
CLASSIFICATION_TYPE = U
NORAD_CAT_ID   = 66610
ELEMENT_SET_NO = 999
REV_AT_EPOCH   = 414
BSTAR          = -.12925E-1
MEAN_MOTION_DOT = -.714653E-2
MEAN_MOTION_DDOT = 0

