STARLINK-35930          
1 66599U 25270M   25344.50003471 -.00681694  00000+0 -12458-1 0  9995
2 66599  42.9996 205.7834 0002022 260.7985 230.1861 15.51026865  4046
STARLINK-35980          
1 66600U 25270N   25344.50003471 -.00844610  00000+0 -15452-1 0  9994
2 66600  42.9998 205.7781 0002292 257.6457 235.2265 15.51123953  3948
STARLINK-35978          
1 66601U 25270P   25344.50003471 -.00719651  00000+0 -13021-1 0  9991
2 66601  42.9998 205.7737 0002099 254.6801 240.1162 15.51054321  3881
STARLINK-36050          
1 66602U 25270Q   25344.50003471 -.00702274  00000+0 -12860-1 0  9995
2 66602  42.9998 205.7684 0001969 258.6235 238.0996 15.51044640  3944
STARLINK-36048          
1 66603U 25270R   25344.50003471 -.00757506  00000+0 -13763-1 0  9997
2 66603  42.9997 205.7631 0001849 244.1324 254.4982 15.51055336  3943
STARLINK-35977          
1 66604U 25270S   25344.50003471 -.00749354  00000+0 -13606-1 0  9996
2 66604  42.9996 205.7582 0001756 246.5594 253.9909 15.51049980  4043
STARLINK-36052          
1 66605U 25270T   25344.50003471 -.00734336  00000+0 -13304-1 0  9996
2 66605  42.9997 205.7541 0002050 255.3644 247.0997 15.51062882  4049
STARLINK-36063          
1 66606U 25270U   25344.50003471 -.00750835  00000+0 -13634-1 0  9995
2 66606  42.9999 205.7437 0001764 247.6746 258.6275 15.51052372  4044
STARLINK-35993          
1 66607U 25270V   25344.50003471 -.00733664  00000+0 -13291-1 0  9996
2 66607  42.9996 205.7494 0001998 256.1177 248.2623 15.51063045  3946
STARLINK-36036          
1 66608U 25270W   25344.50003471 -.00763084  00000+0 -13872-1 0  9991
2 66608  42.9997 205.7388 0001777 246.8612 261.3573 15.51057279  3880
STARLINK-36034          
1 66609U 25270X   25344.50003471 -.00715186  00000+0 -12936-1 0  9992
2 66609  42.9998 205.7351 0002062 254.6408 255.4928 15.51050183  3885
STARLINK-35680          
1 66610U 25270Y   25344.50003471 -.00714653  00000+0 -12925-1 0  9990
2 66610  43.0000 205.7298 0002047 258.0419 254.0059 15.51051470  4146
